NORAD_CAT_ID,OBJECT_NAME,OBJECT_TYPE,EPOCH,MEAN_MOTION,ECCENTRICITY,INCLINATION,RA_OF_ASC_NODE,ARG_OF_PERICENTER,MEAN_ANOMALY,BSTAR,MEAN_MOTION_DOT,MEAN_MOTION_DDOT,TLE_LINE0,TLE_LINE1,TLE_LINE2,SEMIMAJOR_AXIS,PERIOD,APOGEE,PERIGEE,DECAYED
52338.0,STARLINK-3815,PAYLOAD,2022-09-18 04:35:53,15.08831858,0.000156,53.2196,143.6347,58.8541,301.2604,0.00016914,2.404e-05,0.0,0 STARLINK-3815,1 52338U 22045H   22261.19159591  .00002404  00000-0  16914-3 0  9991,2 52338  53.2196 143.6347 0001560  58.8541 301.2604 15.08831858 24144,6917.905,95.438,540.849,538.691,0.0
52338.0,STARLINK-3815,PAYLOAD,2022-09-18 18:54:21,15.08842914,0.000157,53.2192,140.9585,71.2348,288.8815,0.00020312,2.946e-05,0.0,0 STARLINK-3815,1 52338U 22045H   22261.78774592  .00002946  00000-0  20312-3 0  9998,2 52338  53.2192 140.9585 0001570  71.2348 288.8815 15.08842914 24238,6917.871,95.437,540.823,538.65,0.0
52338.0,STARLINK-3815,PAYLOAD,2022-09-18 20:29:44,15.08848794,0.0001602,53.2192,140.6615,61.2713,298.844,0.00024092,3.549e-05,0.0,0 STARLINK-3815,1 52338U 22045H   22261.85398224  .00003549  00000-0  24092-3 0  9999,2 52338  53.2192 140.6615 0001602  61.2713 298.8440 15.08848794 24248,6917.854,95.437,540.827,538.61,0.0
52338.0,STARLINK-3815,PAYLOAD,2022-09-18 23:40:31,15.08838801,0.0001778,53.2186,140.0665,60.173,299.9438,0.00010864,1.441e-05,0.0,0 STARLINK-3815,1 52338U 22045H   22261.98647005  .00001441  00000-0  10864-3 0  9998,2 52338  53.2186 140.0665 0001778  60.1730 299.9438 15.08838801 24260,6917.884,95.438,540.979,538.519,0.0
52338.0,STARLINK-3815,PAYLOAD,2022-09-19 21:55:54,15.08843271,0.0001778,53.2184,135.9042,60.0567,300.0602,9.153e-05,1.169e-05,0.0,0 STARLINK-3815,1 52338U 22045H   22262.91382803  .00001169  00000-0  91530-4 0  9991,2 52338  53.2184 135.9042 0001778  60.0567 300.0602 15.08843271 24407,6917.87,95.437,540.965,538.505,0.0
52338.0,STARLINK-3815,PAYLOAD,2022-09-20 01:06:41,15.08833636,0.0001738,53.2184,135.3098,61.2613,298.8554,2.1495e-05,5.4e-07,0.0,0 STARLINK-3815,1 52338U 22045H   22263.04631410  .00000054  00000-0  21495-4 0  9992,2 52338  53.2184 135.3098 0001738  61.2613 298.8554 15.08833636 24429,6917.9,95.438,540.967,538.563,0.0
52338.0,STARLINK-3815,PAYLOAD,2022-09-20 09:03:37,15.08834748,0.0001746,53.2184,133.82299999999998,62.8271,297.2898,1.7544e-05,-9e-08,0.0,0 STARLINK-3815,1 52338U 22045H   22263.37751499 -.00000009  00000-0  17544-4 0  9999,2 52338  53.2184 133.8230 0001746  62.8271 297.2898 15.08834748 24470,6917.896,95.438,540.969,538.554,0.0
52338.0,STARLINK-3815,PAYLOAD,2022-09-20 15:25:09,15.08836912,0.0001602,53.2181,132.6318,71.6439,288.4727,-9.4473e-06,-4.38e-06,0.0,0 STARLINK-3815,1 52338U 22045H   22263.64247397 -.00000438  00000-0 -94473-5 0  9990,2 52338  53.2181 132.6318 0001602  71.6439 288.4727 15.08836912 24519,6917.89,95.438,540.863,538.6469999999998,0.0
52338.0,STARLINK-3815,PAYLOAD,2022-09-21 02:32:51,15.08847456,0.0001588,53.2184,130.5516,66.4673,293.6485,0.00011206,1.496e-05,0.0,0 STARLINK-3815,1 52338U 22045H   22264.10614893  .00001496  00000-0  11206-3 0  9995,2 52338  53.2184 130.5516 0001588  66.4673 293.6485 15.08847456 24585,6917.858,95.437,540.821,538.624,0.0
52338.0,STARLINK-3815,PAYLOAD,2022-09-21 20:02:05,15.08841414,0.0001488,53.2182,127.2808,69.2491,290.866,0.00020461,2.97e-05,0.0,0 STARLINK-3815,1 52338U 22045H   22264.83479124  .00002970  00000-0  20461-3 0  9992,2 52338  53.2182 127.2808 0001488  69.2491 290.8660 15.08841414 24692,6917.876,95.437,540.77,538.712,0.0
52338.0,STARLINK-3815,PAYLOAD,2022-09-21 23:12:52,15.08840524,0.0001418,53.2181,126.6861,66.5002,293.6139,0.00017949,2.57e-05,0.0,0 STARLINK-3815,1 52338U 22045H   22264.96727177  .00002570  00000-0  17949-3 0  9993,2 52338  53.2181 126.6861 0001418  66.5002 293.6139 15.08840524 24710,6917.879,95.438,540.725,538.763,0.0
52338.0,STARLINK-3815,PAYLOAD,2022-09-22 19:52:53,15.08839617,0.0001485,53.2183,122.8212,66.3828,293.732,7.9152e-05,9.72e-06,0.0,0 STARLINK-3815,1 52338U 22045H   22265.82839257  .00000972  00000-0  79152-4 0  9991,2 52338  53.2183 122.8212 0001485  66.3828 293.7320 15.08839617 24846,6917.882,95.438,540.774,538.719,0.0
52338.0,STARLINK-3815,PAYLOAD,2022-09-22 21:28:16,15.08845096,0.0001373,53.2186,122.523,64.0781,296.0353,-1.4838e-05,-5.24e-06,0.0,0 STARLINK-3815,1 52338U 22045H   22265.89463202 -.00000524  00000-0 -14838-4 0  9996,2 52338  53.2186 122.5230 0001373  64.0781 296.0353 15.08845096 24856,6917.865,95.437,540.68,538.78,0.0
52338.0,STARLINK-3815,PAYLOAD,2022-09-23 07:00:35,15.08834003,9.59e-05,53.2189,120.7395,101.8448,258.2652,0.00013038,1.788e-05,0.0,0 STARLINK-3815,1 52338U 22045H   22266.29207459  .00001788  00000-0  13038-3 0  9992,2 52338  53.2189 120.7395 0000959 101.8448 258.2652 15.08834003 24915,6917.899,95.438,540.427,539.1,0.0
52338.0,STARLINK-3815,PAYLOAD,2022-09-23 21:19:03,15.08843879,0.0001519,53.219,118.0633,69.6414,290.4742,0.00013065,1.792e-05,0.0,0 STARLINK-3815,1 52338U 22045H   22266.88822950  .00001792  00000-0  13065-3 0  9991,2 52338  53.2190 118.0633 0001519  69.6414 290.4742 15.08843879 25009,6917.869000000002,95.437,540.784,538.683,0.0
52338.0,STARLINK-3815,PAYLOAD,2022-09-24 06:51:21,15.08850204,0.0001559,53.2191,116.279,69.3622,290.7537,0.0001692,2.407e-05,0.0,0 STARLINK-3815,1 52338U 22045H   22267.28566440  .00002407  00000-0  16920-3 0  9992,2 52338  53.2191 116.2790 0001559  69.3622 290.7537 15.08850204 25067,6917.849,95.437,540.793,538.636,0.0
52338.0,STARLINK-3815,PAYLOAD,2022-09-24 21:09:49,15.0884538,0.0001588,53.2187,113.603,70.3172,289.7991,0.00015243,2.139e-05,0.0,0 STARLINK-3815,1 52338U 22045H   22267.88182632  .00002139  00000-0  15243-3 0  9994,2 52338  53.2187 113.6030 0001588  70.3172 289.7991 15.08845380 25155,6917.864000000001,95.437,540.828,538.63,0.0
52338.0,STARLINK-3815,PAYLOAD,2022-09-25 00:20:36,15.08846211,0.0001564999999999,53.2184,113.0082,67.8783,292.2376,0.00014837,2.074e-05,0.0,0 STARLINK-3815,1 52338U 22045H   22268.01430562  .00002074  00000-0  14837-3 0  9994,2 52338  53.2184 113.0082 0001565  67.8783 292.2376 15.08846211 25179,6917.861,95.437,540.809,538.644,0.0
52338.0,STARLINK-3815,PAYLOAD,2022-09-25 19:25:13,15.08842542,0.0001529,53.2186,109.4395,66.7051,293.4102,-4.2055e-05,-9.57e-06,0.0,0 STARLINK-3815,1 52338U 22045H   22268.80918492 -.00000957  00000-0 -42055-4 0  9998,2 52338  53.2186 109.4395 0001529  66.7051 293.4102 15.08842542 25299,6917.873000000001,95.437,540.795,538.68,0.0
52338.0,STARLINK-3815,PAYLOAD,2022-09-26 00:11:23,15.08843467,0.0001496,53.2194,108.547,65.0293,295.0854,-9.531e-07,-3.03e-06,0.0,0 STARLINK-3815,1 52338U 22045H   22269.00790848 -.00000303  00000-0 -95310-6 0  9993,2 52338  53.2194 108.5470 0001496  65.0293 295.0854 15.08843467 25328,6917.87,95.437,540.77,538.7,0.0
52338.0,STARLINK-3815,PAYLOAD,2022-09-26 19:16:00,15.08850171,0.0001440999999999,53.2192,104.9785,66.5335,293.5809,7.7469e-05,9.45e-06,0.0,0 STARLINK-3815,1 52338U 22045H   22269.80277877  .00000945  00000-0  77469-4 0  9996,2 52338  53.2192 104.9785 0001441  66.5335 293.5809 15.08850171 25444,6917.849,95.437,540.711,538.717,0.0
52338.0,STARLINK-3815,PAYLOAD,2022-09-26 20:51:23,15.08843074,0.0001309,53.2186,104.6834,68.362,291.7512,4.752600000000001e-05,4.69e-06,0.0,0 STARLINK-3815,1 52338U 22045H   22269.86902386  .00000469  00000-0  47526-4 0  9994,2 52338  53.2186 104.6834 0001309  68.3620 291.7512 15.08843074 25455,6917.871,95.437,540.6419999999998,538.83,0.0
52338.0,STARLINK-3815,PAYLOAD,2022-09-27 00:02:10,15.08835707,0.0001501,53.2193,104.0865,66.2771,293.8378,-1.718e-05,-5.61e-06,0.0,0 STARLINK-3815,1 52338U 22045H   22270.00151054 -.00000561  00000-0 -17180-4 0  9998,2 52338  53.2193 104.0865 0001501  66.2771 293.8378 15.08835707 25478,6917.894,95.438,540.797,538.72,0.0
52338.0,STARLINK-3815,PAYLOAD,2022-09-27 01:37:33,15.08837489,0.0001428,53.2192,103.7892,67.4994,292.6149,1.0111e-06,-2.72e-06,0.0,0 STARLINK-3815,1 52338U 22045H   22270.06774920 -.00000272  00000-0  10111-5 0  9993,2 52338  53.2192 103.7892 0001428  67.4994 292.6149 15.08837489 25484,6917.888000000001,95.438,540.741,538.765,0.0
52338.0,STARLINK-3815,PAYLOAD,2022-09-27 20:42:10,15.08844299,0.0001498,53.219,100.2214,65.2839,294.8309,0.00014169,1.968e-05,0.0,0 STARLINK-3815,1 52338U 22045H   22270.86262311  .00001968  00000-0  14169-3 0  9994,2 52338  53.2190 100.2214 0001498  65.2839 294.8309 15.08844299 25606,6917.8669999999975,95.437,540.769,538.696,0.0
52338.0,STARLINK-3815,PAYLOAD,2022-09-27 22:17:33,15.08845526,0.0001538,53.2179,99.9238,64.843,295.2721,0.00020668,3.003e-05,0.0,0 STARLINK-3815,1 52338U 22045H   22270.92886436  .00003003  00000-0  20668-3 0  9994,2 52338  53.2179  99.9238 0001538  64.8430 295.2721 15.08845526 25618,6917.863,95.437,540.7919999999998,538.665,0.0
52338.0,STARLINK-3815,PAYLOAD,2022-09-28 23:43:45,15.08828794,0.0001929,53.2181,95.1662,81.3636,278.7575,0.00048238,7.395e-05,0.0,0 STARLINK-3815,1 52338U 22045H   22271.98871619  .00007395  00000-0  48238-3 0  9999,2 52338  53.2181  95.1662 0001929  81.3636 278.7575 15.08828794 25774,6917.915,95.438,541.114,538.445,0.0
52338.0,STARLINK-3815,PAYLOAD,2022-09-29 18:48:22,15.08835452,0.0001486,53.2178,91.5985,67.5934,292.5216,-7.755e-06,-4.11e-06,0.0,0 STARLINK-3815,1 52338U 22045H   22272.78359365 -.00000411  00000-0 -77550-5 0  9992,2 52338  53.2178  91.5985 0001486  67.5934 292.5216 15.08835452 25891,6917.894,95.438,540.7869999999998,538.731,0.0
52338.0,STARLINK-3815,PAYLOAD,2022-09-30 12:17:36,15.08822499,0.0001541999999999,53.2193,88.3278,64.5579,295.5572,0.00041806,6.369e-05,0.0,0 STARLINK-3815,1 52338U 22045H   22273.51223192  .00006369  00000-0  41806-3 0  9991,2 52338  53.2193  88.3278 0001542  64.5579 295.5572 15.08822499 26001,6917.934,95.439,540.866,538.732,0.0
